{
  "type": "FeatureCollection",
  "features": [
    {
      "type": "Feature",
      "properties": {
        "norad_id": 32114,
        "name": "FENGYUN 1C DEB",
        "group": "fengyun-1c-debris",
        "lat": -49.410737683871695,
        "lon": 107.8937183684414,
        "alt_km": 628.8268512637533,
        "timestamp": "2025-12-06T11:28:11.347905+00:00",
        "meta_object_name": "FENGYUN 1C DEB",
        "meta_object_id": "1999-025CRG",
        "meta_epoch": "2025-12-05T12:55:34.460256",
        "meta_mean_motion": 14.76438296,
        "meta_eccentricity": 0.00446636,
        "meta_inclination": 99.9283,
        "meta_ra_of_asc_node": 94.9447,
        "meta_arg_of_pericenter": 6.7422,
        "meta_mean_anomaly": 353.4373,
        "meta_ephemeris_type": 0,
        "meta_classification_type": "U",
        "meta_norad_cat_id": 32114,
        "meta_element_set_no": 999,
        "meta_rev_at_epoch": 65623,
        "meta_bstar": 0.0043355933,
        "meta_mean_motion_dot": 0.00030717,
        "meta_mean_motion_ddot": 0,
        "tle_line1": "1 32114U 99025CRG 25339.53859329  .00030717  00000+0  43356-2 0  9992",
        "tle_line2": "2 32114  99.9283  94.9447 0044663   6.7422 353.4373 14.76438296656234"
      },
      "geometry": {
        "type": "Point",
        "coordinates": [
          107.8937183684414,
          -49.410737683871695
        ]
      }
    },
    {
      "type": "Feature",
      "properties": {
        "norad_id": 32117,
        "name": "FENGYUN 1C DEB",
        "group": "fengyun-1c-debris",
        "lat": -57.97301811102829,
        "lon": -168.07804828503754,
        "alt_km": 831.9312840423909,
        "timestamp": "2025-12-06T11:28:11.347915+00:00",
        "meta_object_name": "FENGYUN 1C DEB",
        "meta_object_id": "1999-025CRK",
        "meta_epoch": "2025-12-05T02:18:37.643328",
        "meta_mean_motion": 14.23890979,
        "meta_eccentricity": 0.00277384,
        "meta_inclination": 98.6127,
        "meta_ra_of_asc_node": 24.5906,
        "meta_arg_of_pericenter": 113.3832,
        "meta_mean_anomaly": 247.0269,
        "meta_ephemeris_type": 0,
        "meta_classification_type": "U",
        "meta_norad_cat_id": 32117,
        "meta_element_set_no": 999,
        "meta_rev_at_epoch": 94688,
        "meta_bstar": 0.0020696482,
        "meta_mean_motion_dot": 4.72e-05,
        "meta_mean_motion_ddot": 0,
        "tle_line1": "1 32117U 99025CRK 25339.09626902  .00004720  00000+0  20696-2 0  9992",
        "tle_line2": "2 32117  98.6127  24.5906 0027738 113.3832 247.0269 14.23890979946880"
      },
      "geometry": {
        "type": "Point",
        "coordinates": [
          -168.07804828503754,
          -57.97301811102829
        ]
      }
    },
    {
      "type": "Feature",
      "properties": {
        "norad_id": 32119,
        "name": "FENGYUN 1C DEB",
        "group": "fengyun-1c-debris",
        "lat": 15.961922273792519,
        "lon": -160.404167124728,
        "alt_km": 847.0094423778983,
        "timestamp": "2025-12-06T11:28:11.347925+00:00",
        "meta_object_name": "FENGYUN 1C DEB",
        "meta_object_id": "1999-025CRM",
        "meta_epoch": "2025-12-05T08:00:17.816256",
        "meta_mean_motion": 14.02791969,
        "meta_eccentricity": 0.00850793,
        "meta_inclination": 99.888,
        "meta_ra_of_asc_node": 201.214,
        "meta_arg_of_pericenter": 72.2181,
        "meta_mean_anomaly": 288.8243,
        "meta_ephemeris_type": 0,
        "meta_classification_type": "U",
        "meta_norad_cat_id": 32119,
        "meta_element_set_no": 999,
        "meta_rev_at_epoch": 93624,
        "meta_bstar": 0.0014372,
        "meta_mean_motion_dot": 2.245e-05,
        "meta_mean_motion_ddot": 0,
        "tle_line1": "1 32119U 99025CRM 25339.33353954  .00002245  00000+0  14372-2 0  9999",
        "tle_line2": "2 32119  99.8880 201.2140 0085079  72.2181 288.8243 14.02791969936247"
      },
      "geometry": {
        "type": "Point",
        "coordinates": [
          -160.404167124728,
          15.961922273792519
        ]
      }
    },
    {
      "type": "Feature",
      "properties": {
        "norad_id": 32123,
        "name": "FENGYUN 1C DEB",
        "group": "fengyun-1c-debris",
        "lat": 50.87232192315217,
        "lon": 136.6195727750253,
        "alt_km": 700.4469473414238,
        "timestamp": "2025-12-06T11:28:11.347935+00:00",
        "meta_object_name": "FENGYUN 1C DEB",
        "meta_object_id": "1999-025CRR",
        "meta_epoch": "2025-12-05T22:47:37.068576",
        "meta_mean_motion": 14.6142798,
        "meta_eccentricity": 0.01599159,
        "meta_inclination": 98.9417,
        "meta_ra_of_asc_node": 147.2086,
        "meta_arg_of_pericenter": 314.081,
        "meta_mean_anomaly": 198.7375,
        "meta_ephemeris_type": 0,
        "meta_classification_type": "U",
        "meta_norad_cat_id": 32123,
        "meta_element_set_no": 999,
        "meta_rev_at_epoch": 71275,
        "meta_bstar": 0.00040397462,
        "meta_mean_motion_dot": 2.333e-05,
        "meta_mean_motion_ddot": 0,
        "tle_line1": "1 32123U 99025CRR 25339.94973459  .00002333  00000+0  40397-3 0  9994",
        "tle_line2": "2 32123  98.9417 147.2086 0159915 314.0810 198.7375 14.61427980712750"
      },
      "geometry": {
        "type": "Point",
        "coordinates": [
          136.6195727750253,
          50.87232192315217
        ]
      }
    },
    {
      "type": "Feature",
      "properties": {
        "norad_id": 32125,
        "name": "FENGYUN 1C DEB",
        "group": "fengyun-1c-debris",
        "lat": 9.34925569289129,
        "lon": -41.3738093323857,
        "alt_km": 553.4054097125281,
        "timestamp": "2025-12-06T11:28:11.347946+00:00",
        "meta_object_name": "FENGYUN 1C DEB",
        "meta_object_id": "1999-025CRT",
        "meta_epoch": "2025-11-30T16:29:46.563072",
        "meta_mean_motion": 14.69027096,
        "meta_eccentricity": 0.01775541,
        "meta_inclination": 99.061,
        "meta_ra_of_asc_node": 313.7121,
        "meta_arg_of_pericenter": 0.429,
        "meta_mean_anomaly": 359.7033,
        "meta_ephemeris_type": 0,
        "meta_classification_type": "U",
        "meta_norad_cat_id": 32125,
        "meta_element_set_no": 999,
        "meta_rev_at_epoch": 70346,
        "meta_bstar": 0.0033542642,
        "meta_mean_motion_dot": 0.00025065,
        "meta_mean_motion_ddot": 0,
        "tle_line1": "1 32125U 99025CRT 25334.68734448  .00025065  00000+0  33543-2 0  9996",
        "tle_line2": "2 32125  99.0610 313.7121 0177554   0.4290 359.7033 14.69027096703466"
      },
      "geometry": {
        "type": "Point",
        "coordinates": [
          -41.3738093323857,
          9.34925569289129
        ]
      }
    },
    {
      "type": "Feature",
      "properties": {
        "norad_id": 32126,
        "name": "FENGYUN 1C DEB",
        "group": "fengyun-1c-debris",
        "lat": 20.986834440631117,
        "lon": 40.52943958473583,
        "alt_km": 1123.7026670794921,
        "timestamp": "2025-12-06T11:28:11.347956+00:00",
        "meta_object_name": "FENGYUN 1C DEB",
        "meta_object_id": "1999-025CRU",
        "meta_epoch": "2025-12-04T10:52:29.350272",
        "meta_mean_motion": 13.5677459,
        "meta_eccentricity": 0.0281594,
        "meta_inclination": 99.1099,
        "meta_ra_of_asc_node": 215.1244,
        "meta_arg_of_pericenter": 276.7788,
        "meta_mean_anomaly": 80.1388,
        "meta_ephemeris_type": 0,
        "meta_classification_type": "U",
        "meta_norad_cat_id": 32126,
        "meta_element_set_no": 999,
        "meta_rev_at_epoch": 61602,
        "meta_bstar": 0.0020639,
        "meta_mean_motion_dot": 1.847e-05,
        "meta_mean_motion_ddot": 0,
        "tle_line1": "1 32126U 99025CRU 25338.45311748  .00001847  00000+0  20639-2 0  9994",
        "tle_line2": "2 32126  99.1099 215.1244 0281594 276.7788  80.1388 13.56774590616026"
      },
      "geometry": {
        "type": "Point",
        "coordinates": [
          40.52943958473583,
          20.986834440631117
        ]
      }
    },
    {
      "type": "Feature",
      "properties": {
        "norad_id": 32128,
        "name": "FENGYUN 1C DEB",
        "group": "fengyun-1c-debris",
        "lat": -15.332742304779869,
        "lon": 29.317858246755108,
        "alt_km": 980.3695196755316,
        "timestamp": "2025-12-06T11:28:11.347966+00:00",
        "meta_object_name": "FENGYUN 1C DEB",
        "meta_object_id": "1999-025CRW",
        "meta_epoch": "2025-12-02T21:25:30.553536",
        "meta_mean_motion": 13.94166483,
        "meta_eccentricity": 0.03968604,
        "meta_inclination": 99.0315,
        "meta_ra_of_asc_node": 23.3034,
        "meta_arg_of_pericenter": 249.8846,
        "meta_mean_anomaly": 105.9204,
        "meta_ephemeris_type": 0,
        "meta_classification_type": "U",
        "meta_norad_cat_id": 32128,
        "meta_element_set_no": 999,
        "meta_rev_at_epoch": 62848,
        "meta_bstar": 0.00073088857,
        "meta_mean_motion_dot": 1.817e-05,
        "meta_mean_motion_ddot": 0,
        "tle_line1": "1 32128U 99025CRW 25336.89271474  .00001817  00000+0  73089-3 0  9998",
        "tle_line2": "2 32128  99.0315  23.3034 0396860 249.8846 105.9204 13.94166483628487"
      },
      "geometry": {
        "type": "Point",
        "coordinates": [
          29.317858246755108,
          -15.332742304779869
        ]
      }
    }
  ]
}